{"type":"FeatureCollection","features":[{"type":"Feature","properties":{},"geometry":{"coordinates":[[7.525923313696637,6.468898329647871],[7.525984941737619,6.468946253209765],[7.526330594660266,6.468530915526728],[7.52643777386146,6.468624100293226],[7.526628016941999,6.468379157442115],[7.526662850183044,6.468413768939811],[7.526464568661453,6.468632087557793],[7.526504760861371,6.468658711772818],[7.526563709421595,6.468584163967392],[7.5266065811023,6.468613450606114],[7.52655567098185,6.468682673565695],[7.526630696422842,6.468746571673606],[7.526686965503558,6.468693323251358],[7.526716439782973,6.4687199474632],[7.526662850183044,6.468786507987971],[7.526619978502282,6.468834431559159],[7.526539594102388,6.468956902888564],[7.526737875624036,6.469108660799634],[7.526802183144412,6.469140609827676],[7.526960272464777,6.468959565309206],[7.526984387785262,6.468972877408277],[7.5271344386671615,6.468807807353315],[7.52724161786702,6.468685335987786],[7.527544399110354,6.468807807353315],[7.527488130029639,6.4689409283696335],[7.527528322229557,6.469002164025781],[7.526955577237715,6.469786669567441],[7.526892491073397,6.469775272405499],[7.526843742673549,6.469721135878473],[7.526812199590694,6.4696556021796425],[7.5267806565092314,6.469618561390504],[7.526734775661737,6.4696043149322975],[7.526706100132628,6.469572972722034],[7.526688894814299,6.469535931925449],[7.52680933203834,6.469379220836174],[7.526863815544232,6.4694048644726365],[7.526915431496434,6.4694048644726365],[7.526941239473189,6.469316536387154],[7.526786391613882,6.469208263228978],[7.526602868226888,6.4690572506279835],[7.526426932852189,6.468936740095657],[7.526333219560797,6.468895134792575],[7.526277390365863,6.468827773819015],[7.526345182959119,6.468697014255639],[7.526426932852189,6.468677202197867],[7.526381073156216,6.468597953958053]],"type":"LineString"}},{"type":"Feature","properties":{},"geometry":{"coordinates":[[7.525915608878279,6.468893923969247],[7.525777513141975,6.468791011580905],[7.525840468551422,6.468692134951851],[7.525706434453582,6.468585186740199]],"type":"LineString"}},{"type":"Feature","properties":{},"geometry":{"coordinates":[[7.526380134369333,6.468594652609696],[7.5262894142314565,6.468543364580668],[7.526419237878343,6.468358416796889],[7.526358236406395,6.468304020376777],[7.526298799074453,6.468383283729921]],"type":"LineString"}},{"type":"Feature","properties":{},"geometry":{"coordinates":[[7.526504294768728,6.4686601275759585],[7.526572239142524,6.468799460454164]],"type":"LineString"}},{"type":"Feature","properties":{},"geometry":{"coordinates":[[7.5271487734985385,6.468797547693953],[7.527068756263645,6.468749395084188]],"type":"LineString"}},{"type":"Feature","properties":{},"geometry":{"coordinates":[[7.5271476464737646,6.468794188236103],[7.527252457780833,6.468919608965848],[7.52716680552939,6.468954323627287],[7.527231793654408,6.469024697448461],[7.5271925849245065,6.46907556156323],[7.527263807295242,6.469116000923876],[7.527292635397458,6.469097466216937],[7.527355378913796,6.469023327384178]],"type":"LineString"}},{"type":"Feature","properties":{},"geometry":{"coordinates":[[7.527189193382981,6.469073876589263],[7.526948393940671,6.4693198826508365]],"type":"LineString"}},{"type":"Feature","properties":{},"geometry":{"coordinates":[[7.527188170053222,6.469074237000385],[7.52723970533134,6.469148048749162],[7.527304557083426,6.4692042862606485],[7.527352901115734,6.4692417779318845]],"type":"LineString"}},{"type":"Feature","properties":{},"geometry":{"coordinates":[[7.526957975778885,6.4697812795684655],[7.527031436094603,6.469832153110346],[7.527124931042096,6.46988523854057]],"type":"LineString"}},{"type":"Feature","properties":{},"geometry":{"coordinates":[[7.526464193557899,6.471000669864665],[7.526418330966095,6.470981559694877],[7.526391701073322,6.470981559694877],[7.526381345004722,6.47095068941961],[7.526289619819664,6.470896298930526],[7.526184579688248,6.470852198529144],[7.526098772257285,6.470831618340554],[7.526051430225863,6.470811038151879],[7.525967102233068,6.470796338015489],[7.525910883571214,6.470784577906883],[7.525819158386128,6.470761057688009]],"type":"LineString"}},{"type":"Feature","properties":{},"geometry":{"coordinates":[[7.526393180511491,6.470980089682129],[7.526424248720218,6.470934519275119],[7.526452358051159,6.4708933589038224],[7.526489344012504,6.47082720830025],[7.526307373080527,6.470725777358027],[7.526251154418674,6.470705197164264]],"type":"LineString"}},{"type":"Feature","properties":{},"geometry":{"coordinates":[[7.526249674980505,6.470708137192105],[7.5261387170949945,6.47066403677502],[7.5258561443475,6.470656686705098]],"type":"LineString"}},{"type":"Feature","properties":{},"geometry":{"coordinates":[[7.5265783205053935,6.470818528498768],[7.526525226104866,6.47079605828317],[7.526395439791287,6.470742325154859],[7.526311865269179,6.470687615055439],[7.52596452135333,6.470496398549429],[7.525975336879156,6.470477836185822],[7.526153301445078,6.470563809233184],[7.526191647401106,6.470525707543942],[7.526209345534937,6.470490536750731],[7.526262439935493,6.470488582818163],[7.526290953595122,6.470499329449282],[7.526340115077915,6.470538408106705],[7.526292920054999,6.470663459791581],[7.526481700146718,6.470772879990761],[7.526558392058746,6.4706282890089],[7.5263705951964255,6.470516914845874]],"type":"LineString"}},{"type":"Feature","properties":{},"geometry":{"coordinates":[[7.526690812845658,6.470789870354295],[7.526853969197305,6.470857486969223],[7.5270868154479444,6.470979685646725]],"type":"LineString"}}]}