{"type":"FeatureCollection","features":[{"type":"Feature","properties":{"id":"oursavior_blockA"},"geometry":{"coordinates":[[[7.526418443172332,6.470936451861448],[7.526319952460199,6.470877434804947],[7.526374565453324,6.47078842830652],[7.526477740981505,6.470837696795826],[7.526444834707803,6.470882886197273],[7.526418443172332,6.470936451861448]]],"type":"Polygon"}},{"type":"Feature","properties":{"id":"oursavior_blockB"},"geometry":{"coordinates":[[[7.526332477829783,6.470850870810821],[7.526286206344054,6.470821007110558],[7.5263185043482395,6.4707704362337495],[7.526366502249772,6.470797564850045],[7.526332477829783,6.470850870810821]]],"type":"Polygon"}},{"type":"Feature","properties":{"id":"oursavior_blockC"},"geometry":{"coordinates":[[[7.5263166219004916,6.470763706305846],[7.5262667332230535,6.4708450132712585],[7.526166009514668,6.470792829240025],[7.526221516465597,6.470706209694015],[7.5263166219004916,6.470763706305846]]],"type":"Polygon"}},{"type":"Feature","properties":{"id":"oursaviour_blockD"},"geometry":{"coordinates":[[[7.526156879495062,6.470791376162467],[7.526050424646314,6.470775059370354],[7.526051676279394,6.470748424850875],[7.526031647973582,6.4707413374191525],[7.52603972106229,6.470681500187551],[7.52606093061479,6.470666483631902],[7.526174993764101,6.470679946005362],[7.526156879495062,6.470791376162467]]],"type":"Polygon"},"id":3},{"type":"Feature","properties":{"id":"nwabueze_block1"},"geometry":{"coordinates":[[[7.525595774998266,6.470128345693269],[7.525584439514148,6.47011590204184],[7.525569350405306,6.4701466438037585],[7.525583474803341,6.4701605286245325],[7.525551742948949,6.470210936317514],[7.525438464323798,6.470147387466582],[7.525483852511712,6.4700687304489435],[7.525468804232105,6.470058004969886],[7.525490454830049,6.470020780136707],[7.525511712127582,6.470029266807515],[7.525545645627574,6.469967059606503],[7.5256517102695,6.470035771177606],[7.525595774998266,6.470128345693269]]],"type":"Polygon"}},{"type":"Feature","properties":{"id":"nwabueze_block2"},"geometry":{"coordinates":[[[7.525790724952742,6.470245913341174],[7.52576845481056,6.4702350312905],[7.5257209488450485,6.470308249488966],[7.525609499351049,6.470246474575333],[7.525638810977227,6.470200949691275],[7.5256506109425345,6.470205372551902],[7.525673324347906,6.47016480256336],[7.52565752490861,6.470157142591233],[7.525710113844099,6.470067053964172],[7.525827199451328,6.470130113424432],[7.525802438100953,6.470180560901625],[7.525821406731012,6.470195297403393],[7.525790724952742,6.470245913341174]]],"type":"Polygon"}},{"type":"Feature","properties":{"id ":"nwabueze_block3"},"geometry":{"coordinates":[[[7.525991248907133,6.470342673961184],[7.525976761173268,6.470334745560834],[7.525957900085558,6.470366184930981],[7.525972247846084,6.470374307786798],[7.5259443086777935,6.470426515471871],[7.525826873027427,6.47036663969881],[7.5258735173971445,6.47028735859854],[7.525853452927947,6.470276636789308],[7.525876247382598,6.470234666598074],[7.525901313541368,6.47024200234263],[7.525926829828109,6.470190016804153],[7.526039579844877,6.4702536563709],[7.525991248907133,6.470342673961184]]],"type":"Polygon"}},{"type":"Feature","properties":{"id":"nwabueze_block4"},"geometry":{"coordinates":[[[7.5259289115763295,6.470474405782298],[7.52585106969758,6.470433443022088],[7.525863166449653,6.470408797748192],[7.525940995054867,6.470449933864884],[7.5259289115763295,6.470474405782298]]],"type":"Polygon"},"id":7},{"type":"Feature","properties":{"id":"nwabueze _store"},"geometry":{"coordinates":[[[7.52554231969944,6.46996977158264],[7.525509391262432,6.469950276381496],[7.525525159943186,6.469936396720911],[7.525554134101128,6.469952653114788],[7.52554231969944,6.46996977158264]]],"type":"Polygon"}},{"type":"Feature","properties":{"id":"nwabueze_gatepost"},"geometry":{"coordinates":[[[7.52538386003485,6.470178585212423],[7.525347646805756,6.470158350609154],[7.525361000322619,6.470138975410606],[7.525395075940708,6.470158468538926],[7.52538386003485,6.470178585212423]]],"type":"Polygon"}},{"type":"Feature","properties":{"id":"nwabuez_toilet1"},"geometry":{"coordinates":[[[7.525645220530407,6.470026118963688],[7.525564393121186,6.469976919519411],[7.525568679428687,6.469960128331309],[7.525652282796102,6.470009179900913],[7.525645220530407,6.470026118963688]]],"type":"Polygon"}},{"type":"Feature","properties":{"id":"nwabueze_kitchen1"},"geometry":{"coordinates":[[[7.525638002235667,6.470142678056604],[7.525608977580134,6.470128933501812],[7.525641899440046,6.470083341527811],[7.525668648750866,6.47009377647889],[7.525638002235667,6.470142678056604]]],"type":"Polygon"}},{"type":"Feature","properties":{"id":"nwabuez_toilet2"},"geometry":{"coordinates":[[[7.525840803728386,6.470136664859766],[7.525779294411819,6.470098540319597],[7.52578849385344,6.470084877041913],[7.5258487788580055,6.470124819967737],[7.525840803728386,6.470136664859766]]],"type":"Polygon"}},{"type":"Feature","properties":{"id":"nwabueze_kitchen2"},"geometry":{"coordinates":[[[7.525863443354069,6.470251206083788],[7.525839265359338,6.470234578541394],[7.525865861173884,6.470185660129715],[7.525890991466838,6.470199040549019],[7.525863443354069,6.470251206083788]]],"type":"Polygon"}},{"type":"Feature","properties":{"id":"nwabueze_toilet3"},"geometry":{"coordinates":[[[7.5259848781748815,6.470220815825073],[7.525935320590861,6.470193329074917],[7.525944129578818,6.470180245713536],[7.525988567643111,6.470208453789937],[7.5259848781748815,6.470220815825073]]],"type":"Polygon"}},{"type":"Feature","properties":{"id":"oursaviour_hostel"},"geometry":{"coordinates":[[7.526017482755975,6.471163762265533],[7.525669597879045,6.470975007436934],[7.525808485335631,6.47074346651614],[7.525789118869625,6.47072867693646],[7.525850254433152,6.470631599919045],[7.525898768441209,6.470544859321805],[7.525912302770479,6.470540732613088],[7.525949676822449,6.470513357076712],[7.5259647423953595,6.470515180435285],[7.526528071022881,6.47083037406324],[7.526391096339182,6.471071871578147],[7.526223473543013,6.470983938225572],[7.526131034176927,6.470948982820971],[7.526018211883411,6.471167422660187]],"type":"LineString"},"id":15},{"type":"Feature","properties":{"id":"oursavior_mod_block"},"geometry":{"coordinates":[[[7.526388118666148,6.471061022452417],[7.526360094113244,6.471044273819757],[7.526383922891057,6.47098634121059],[7.5264217866770196,6.471008328412125],[7.526388118666148,6.471061022452417]]],"type":"Polygon"}},{"type":"Feature","properties":{"id":"oursavior_gatepost"},"geometry":{"coordinates":[[[7.526449079859674,6.470961669896084],[7.526420116154014,6.470942197071665],[7.526439628934526,6.4709040395621145],[7.526466250750275,6.470927028727914],[7.526449079859674,6.470961669896084]]],"type":"Polygon"}},{"type":"Feature","properties":{"id":"nwabueze_hostel"},"geometry":{"coordinates":[[7.525347248287773,6.470161635656339],[7.525937165822086,6.470489726323194],[7.5260573716306,6.470268580032155],[7.526066239647861,6.47025051280157],[7.525497294424724,6.469915137972791],[7.52534302382054,6.470164872268285]],"type":"LineString"}},{"type":"Feature","properties":{"id":"oursaviour_blockE"},"geometry":{"coordinates":[[[7.525987518001358,6.470738915046624],[7.525993842135449,6.4706779758681705],[7.52603535061769,6.470677358339984],[7.526027160111596,6.470742584044288],[7.525987518001358,6.470738915046624]]],"type":"Polygon"},"id":19},{"type":"Feature","properties":{"id":"oursaviour_blockF"},"geometry":{"coordinates":[[[7.5259808584434325,6.470760006871217],[7.525917794178781,6.470757093105078],[7.52584067348252,6.470747452769416],[7.525805256299805,6.470738147596705],[7.525798550796452,6.470727105858103],[7.5258427184013215,6.470658756713249],[7.525860182749341,6.470663226376999],[7.52586666463327,6.470648982836892],[7.525994174546838,6.47066541921383],[7.5259808584434325,6.470760006871217]]],"type":"Polygon"},"id":20},{"type":"Feature","properties":{"id":"oursavior_toilet1"},"geometry":{"coordinates":[[[7.526130809935154,6.4706177038080455],[7.5260994898855245,6.47065935320056],[7.525926472902569,6.470563296863432],[7.525957609066552,6.4705201067321525],[7.526130809935154,6.4706177038080455]]],"type":"Polygon"},"id":21},{"type":"Feature","properties":{"id":"oursavior_toilet2"},"geometry":{"coordinates":[[[7.525880777760449,6.47064389812742],[7.525855074041715,6.470634824768339],[7.525908156667214,6.470545578331297],[7.525928394373864,6.470560920894073],[7.525880777760449,6.47064389812742]]],"type":"Polygon"},"id":22},{"type":"Feature","properties":{"id":"oursaviour_kitchen"},"geometry":{"coordinates":[[[7.526262304855948,6.470685857503611],[7.5262446161266325,6.470709863008992],[7.526172821869267,6.470673230277242],[7.52618859892894,6.470643611726516],[7.526262304855948,6.470685857503611]]],"type":"Polygon"},"id":23},{"type":"Feature","properties":{"id":"oursaviour_store"},"geometry":{"coordinates":[[[7.526495558694677,6.470849864063439],[7.5264726329812675,6.4708382633529595],[7.526486532399645,6.470813655983946],[7.526511845292845,6.47083188129956],[7.526495558694677,6.470849864063439]]],"type":"Polygon"},"id":24},{"type":"Feature","properties":{"id":"oursaviour_field"},"geometry":{"coordinates":[[[7.52601222126134,6.4711416126288555],[7.52582329886161,6.471042887011649],[7.525899388768806,6.470870307245349],[7.526090650452005,6.470973869346295],[7.52601222126134,6.4711416126288555]]],"type":"Polygon"},"id":25},{"type":"Feature","properties":{"id":"cvc_hostel"},"geometry":{"coordinates":[[7.526520600117038,6.4708165416576975],[7.5266460777055215,6.47058552013857],[7.526081274999598,6.4702532300339755],[7.525946520599746,6.470501880077336],[7.52652118626898,6.470821016929108]],"type":"LineString"},"id":26},{"type":"Feature","properties":{"id":"cvc_blockA"},"geometry":{"coordinates":[[[7.526543284526184,6.470638316838276],[7.52649873124534,6.470730622157603],[7.5263191709820205,6.470636328943073],[7.526344451809848,6.470578719889488],[7.52637227200438,6.470540688103185],[7.526543284526184,6.470638316838276]]],"type":"Polygon"},"id":27},{"type":"Feature","properties":{"id":"cvc_blockB"},"geometry":{"coordinates":[[[7.526036143653101,6.470364735775632],[7.526149515518313,6.4704332143058565],[7.526206704682039,6.470468350127405],[7.526188829317931,6.470504099056143],[7.5261618377979005,6.470550314677112],[7.526106460308597,6.4705193202609905],[7.526102913523971,6.47053438781559],[7.526036668174925,6.470496876749181],[7.526042802436649,6.470484608843421],[7.525982189714625,6.470447300749498],[7.5260056844334144,6.47040454466493],[7.526036143653101,6.470364735775632]]],"type":"Polygon"},"id":28},{"type":"Feature","properties":{"id":"cvc_kitchen"},"geometry":{"coordinates":[[[7.526260890599474,6.470406401653435],[7.526308056002023,6.470430654701417],[7.526317215815908,6.470412335993387],[7.526353175187666,6.470432793653558],[7.5263464619814044,6.4704501961874],[7.526386531354348,6.470476327839322],[7.526357209326534,6.470523266036565],[7.526236930289485,6.470450181490364],[7.526260890599474,6.470406401653435]]],"type":"Polygon"},"id":29},{"type":"Feature","properties":{"id":"cvc_toilet1"},"geometry":{"coordinates":[[[7.526124800045807,6.4702853888642835],[7.526199999333954,6.470327379166974],[7.5261913742242825,6.470344628522113],[7.526177301677137,6.470372772206531],[7.52610025401404,6.47032694589744],[7.526112275869508,6.47029787215304],[7.526124800045807,6.4702853888642835]]],"type":"Polygon"},"id":30},{"type":"Feature","properties":{"id":"cvc_toilet2"},"geometry":{"coordinates":[[[7.5263047875507425,6.470388038160678],[7.526294360498213,6.470413679896325],[7.526189793140276,6.470353663314839],[7.5262042180332,6.47033000229105],[7.5263047875507425,6.470388038160678]]],"type":"Polygon"},"id":31},{"type":"Feature","properties":{"id":"cvc_gatepost"},"geometry":{"coordinates":[[[7.526531804260145,6.470722330681852],[7.526557209095614,6.4707292018583615],[7.526554913685516,6.470757524818637],[7.526540743377609,6.47078113148163],[7.5265096777939675,6.470764155740099],[7.526519507758081,6.470732341549066],[7.526531804260145,6.470722330681852]]],"type":"Polygon"},"id":32}]}