{"type":"FeatureCollection","features":[{"type":"Feature","properties":{},"geometry":{"coordinates":[[[7.526312901413121,6.469016681026446],[7.526219137472907,6.4689443766781665],[7.526175598006397,6.468912224794302],[7.526144886140574,6.468890890787196],[7.52612138104932,6.4688732790079495],[7.526156457648264,6.468826802014527],[7.526185055819459,6.468793358346565],[7.526212332519234,6.468817448213923],[7.526187564536315,6.468846039473952],[7.526204663584597,6.468868967527303],[7.526250747266786,6.468898169863749],[7.526284952582671,6.468860125387778],[7.526379149108919,6.4689337901379815],[7.526312901413121,6.469016681026446]]],"type":"Polygon"}}]}