{"type":"FeatureCollection","features":[{"type":"Feature","properties":{"id":"computer village"},"geometry":{"coordinates":[[7.525884087105794,6.468957377975428],[7.525471361409075,6.4685932663035715],[7.52554673095932,6.468527859134895],[7.525777880728242,6.468416946981648],[7.526081524191795,6.468687776380293],[7.525952315511319,6.468858305378063],[7.525930047378608,6.468891023498188],[7.525901101176487,6.468935287154537],[7.5258854641193125,6.468956524038077]],"type":"LineString"},"id":0},{"type":"Feature","properties":{"id":"computer lib"},"geometry":{"coordinates":[[[7.525667242008296,6.468745354335525],[7.525517050254194,6.468612622046848],[7.525506856943906,6.468621514143905],[7.52549023346927,6.468609429416389],[7.525555331019945,6.468540825734962],[7.525713690388642,6.468692175199678],[7.525667242008296,6.468745354335525]]],"type":"Polygon"},"id":1},{"type":"Feature","properties":{"id":"computer_block2"},"geometry":{"coordinates":[[[7.525906100597297,6.468737860092062],[7.5256967706843625,6.468556702173856],[7.5257560185510215,6.468491091424497],[7.525769311246677,6.468495320682635],[7.525805653589686,6.468458342533893],[7.526006034432186,6.46862937207095],[7.525906100597297,6.468737860092062]]],"type":"Polygon"},"id":2},{"type":"Feature","properties":{"id":"computer_block1"},"geometry":{"coordinates":[[[7.52581041912299,6.4687588711047965],[7.525855042781103,6.468700742723101],[7.525910618767455,6.4687465787532545],[7.526008496486526,6.4686384073718415],[7.526067634645358,6.468686832991551],[7.525932807673371,6.468855089043245],[7.52581041912299,6.4687588711047965]]],"type":"Polygon"},"id":3},{"type":"Feature","properties":{"id":"computer_toilet_m"},"geometry":{"coordinates":[[[7.5255661958568965,6.468543797531737],[7.525663245143505,6.468496273573152],[7.525672894919012,6.468519032069267],[7.525641516899526,6.468532955911172],[7.525673191826513,6.468579597687807],[7.525630026462494,6.468605943735156],[7.5255661958568965,6.468543797531737]]],"type":"Polygon"},"id":4},{"type":"Feature","properties":{"id":"computer_toilet_f"},"geometry":{"coordinates":[[[7.5256867815502915,6.468539622815086],[7.525669202027245,6.468495356227109],[7.525788820429227,6.46844587195794],[7.525784229238923,6.468489764577882],[7.5256867815502915,6.468539622815086]]],"type":"Polygon"},"id":5},{"type":"Feature","properties":{"id":"computer_foodspot"},"geometry":{"coordinates":[[[7.5257143932481085,6.468763901035516],[7.5259043106003105,6.468925579845873],[7.525881197522494,6.468953383720105],[7.5256890353217045,6.468782201281357],[7.5257143932481085,6.468763901035516]]],"type":"Polygon"},"id":6}]}