{"type":"FeatureCollection","features":[{"type":"Feature","properties":{},"geometry":{"coordinates":[[[7.52700588958885,6.4681046703800575],[7.5272011001831345,6.468393035774682],[7.52727897360532,6.468429316304508],[7.527259423402626,6.468513428780099],[7.527798699267663,6.468747556991389],[7.527674887023366,6.469045119004242],[7.52715746294286,6.469748674473411],[7.527129064611605,6.469792904515031],[7.5270950427962795,6.469820037485613],[7.5270712991358995,6.469803147792537],[7.5270333483682,6.469848587552244],[7.527038306415388,6.469938282084283],[7.526770995448784,6.470349858129984],[7.5265463785829985,6.470206720414526],[7.526188521686283,6.470009075218352],[7.526217828531969,6.469954146357594],[7.52632510804861,6.46978964189287],[7.526368878153317,6.469725749874501],[7.526486968842876,6.469547340461606],[7.526684684378118,6.4693068563095215],[7.526653634345891,6.469282537071182],[7.526654352877841,6.469230507259603],[7.5264167823200125,6.469091205612788],[7.5262779308364,6.469004698256208],[7.526202435103535,6.468951728808517],[7.526094160351249,6.468869202077201],[7.526417352531041,6.4685030598349815],[7.526543131260468,6.468385074596245],[7.526767704867154,6.468246255875606],[7.52700588958885,6.4681046703800575]]],"type":"Polygon"},"id":0}]}