{"type":"FeatureCollection","features":[{"type":"Feature","properties":{},"geometry":{"coordinates":[[[7.5265779789189935,6.468898920844978],[7.526726590760148,6.468720552601482],[7.526845828632048,6.468813537766351],[7.52682602437141,6.46883912464606],[7.526894615979504,6.468894421820121],[7.52686852317205,6.4689242427588365],[7.526879047181599,6.468935627127396],[7.526851636862162,6.468966668754362],[7.526823161953536,6.469018947316351],[7.526802015144822,6.469004360851928],[7.5267712990172795,6.46903611751272],[7.526717687454271,6.469001620267756],[7.526751147917249,6.468958187487491],[7.5267400910781035,6.4689448720624725],[7.52670032667271,6.468993512197102],[7.5265779789189935,6.468898920844978]]],"type":"Polygon"}}]}