{"type":"FeatureCollection","features":[{"type":"Feature","properties":{},"geometry":{"type":"Polygon","coordinates":[[[7.526360335966217,6.4686601284216225],[7.526357922739507,6.46866001062215],[7.526355532753492,6.46865965835821],[7.5263531890250475,6.468659075022295],[7.526350914125564,6.46865826623225],[7.526348729963568,6.468657239777166],[7.526346657573738,6.4686560055423685],[7.526344716914318,6.468654575414215],[7.526342926674925,6.46865296316562],[7.52634130409654,6.468651184323427],[7.526339864805482,6.468649256018852],[7.526338622662908,6.468647196822531],[7.526337589631328,6.468645026565648],[7.526336775659399,6.468642766148966],[7.526336188586115,6.468640437341533],[7.526335834065308,6.468638062571039],[7.526335715511204,6.468635664707823],[7.52633583406554,6.468633266844618],[7.526336188586571,6.468630892074159],[7.526336775660062,6.4686285632667815],[7.5263375896321705,6.468626302850172],[7.526338622663898,6.468624132593379],[7.526339864806584,6.468622073397159],[7.526341304097709,6.4686201450926974],[7.526342926676118,6.4686183662506185],[7.526344716915488,6.46861675400214],[7.526346657574839,6.468615323874096],[7.526348729964561,6.468614089639403],[7.526350914126406,6.468613063184407],[7.526353189025711,6.468612254394436],[7.526355532753948,6.468611671058576],[7.526357922739739,6.46861131879467],[7.526360335966217,6.468611200995208],[7.526362749192693,6.46861131879467],[7.526365139178485,6.468611671058576],[7.526367482906722,6.468612254394436],[7.526369757806026,6.468613063184407],[7.526371941967873,6.468614089639403],[7.526374014357595,6.468615323874096],[7.526375955016946,6.46861675400214],[7.526377745256316,6.4686183662506185],[7.526379367834725,6.4686201450926974],[7.52638080712585,6.468622073397159],[7.526382049268534,6.468624132593379],[7.526383082300262,6.468626302850172],[7.526383896272371,6.4686285632667815],[7.526384483345861,6.468630892074159],[7.526384837866894,6.468633266844618],[7.52638495642123,6.468635664707823],[7.526384837867126,6.468638062571039],[7.526384483346319,6.468640437341533],[7.5263838962730345,6.468642766148966],[7.5263830823011055,6.468645026565648],[7.526382049269525,6.468647196822531],[7.5263808071269525,6.468649256018852],[7.526379367835894,6.468651184323427],[7.526377745257509,6.46865296316562],[7.526375955018114,6.468654575414215],[7.526374014358695,6.4686560055423685],[7.526371941968866,6.468657239777166],[7.52636975780687,6.46865826623225],[7.526367482907385,6.468659075022295],[7.526365139178941,6.46865965835821],[7.526362749192927,6.46866001062215],[7.526360335966217,6.4686601284216225]]]}}]}