{"type":"FeatureCollection","features":[{"type":"Feature","properties":{"id":"student_affairs_block"},"geometry":{"coordinates":[[7.5260842814210775,6.468690467993582],[7.526235969532053,6.46850325669881],[7.526046332868361,6.468320162198069],[7.52580659523926,6.468440189952446],[7.526084803068045,6.468693453296396]],"type":"LineString"},"id":0},{"type":"Feature","properties":{"id":"student_affairs_block1"},"geometry":{"coordinates":[[[7.5260518269163015,6.468649733492953],[7.5259554262950985,6.468562351697088],[7.526098922613471,6.468411538509727],[7.526190167736189,6.468500625920555],[7.5260518269163015,6.468649733492953]]],"type":"Polygon"},"id":1},{"type":"Feature","properties":{"id":"student_affairs_block2"},"geometry":{"coordinates":[[[7.525928651016102,6.468475608483388],[7.52590475401189,6.468413179090291],[7.526056610752789,6.468333804803095],[7.526088547478167,6.468401768826766],[7.525928651016102,6.468475608483388]]],"type":"Polygon"},"id":2}]}