{"type":"FeatureCollection","features":[{"type":"Feature","properties":{"height":14,"base_height":0,"name":"admin buildings"},"geometry":{"coordinates":[[[7.526617662918397,6.468614838665616],[7.5265433075199155,6.468556135627836],[7.526597467148861,6.468463763329424],[7.526630680814542,6.468487442610758],[7.526664582625315,6.46850422759978],[7.526697108145875,6.468534801172247],[7.526678405637458,6.468563927466281],[7.526650694470561,6.468576801336951],[7.526617662918397,6.468614838665616]]],"type":"Polygon"},"id":0},{"type":"Feature","properties":{"height":12,"base_height":0,"name":"arc building"},"geometry":{"coordinates":[[[7.526490092854175,6.469583782366826],[7.526739524411738,6.469304014107038],[7.526791536923383,6.469356958578601],[7.526557858300748,6.469632799076351],[7.526490092854175,6.469583782366826]]],"type":"Polygon"},"id":0},{"type":"Feature","properties":{"height":10,"base_height":0,"name":"bursar unit"},"geometry":{"coordinates":[[[7.526312901413121,6.469016681026446],[7.526219137472907,6.4689443766781665],[7.526175598006397,6.468912224794302],[7.526144886140574,6.468890890787196],[7.52612138104932,6.4688732790079495],[7.526156457648264,6.468826802014527],[7.526185055819459,6.468793358346565],[7.526212332519234,6.468817448213923],[7.526187564536315,6.468846039473952],[7.526204663584597,6.468868967527303],[7.526250747266786,6.468898169863749],[7.526284952582671,6.468860125387778],[7.526379149108919,6.4689337901379815],[7.526312901413121,6.469016681026446]]],"type":"Polygon"}},{"type":"Feature","properties":{"height":9,"base_height":0,"name":"clinic 1"},"geometry":{"coordinates":[[[7.527131546641812,6.4685955710172465],[7.527073555064277,6.4686942646537915],[7.527027753191845,6.4686633083146035],[7.527072525639085,6.468569944545635],[7.527131546641812,6.4685955710172465]]],"type":"Polygon"}},{"type":"Feature","properties":{"height":9,"base_height":0,"name":"clinic 2"},"geometry":{"coordinates":[[[7.527192353006626,6.468489270534505],[7.5271415605484435,6.468580942933073],[7.527082539548218,6.468555316457312],[7.5271421669057474,6.4684577283829015],[7.527192353006626,6.468489270534505]]],"type":"Polygon"}},{"type":"Feature","properties":{"nas ":"building","height":12,"base_height":0,"name":"cob building"},"geometry":{"coordinates":[[[7.527208628261974,6.469006697517969],[7.52694430124339,6.469308776743475],[7.526847088657149,6.469229495883752],[7.527116852146747,6.468923295341028],[7.527165126805471,6.468955922959083],[7.527208628261974,6.469006697517969]]],"type":"Polygon"},"id":0},{"type":"Feature","properties":{"height":11,"base_height":0,"name":"cohon 1"},"geometry":{"coordinates":[[[7.527074014757119,6.468771983908255],[7.526942732501965,6.468932262557217],[7.526894590303527,6.468902764773986],[7.526980801253558,6.468788748376838],[7.526929675173477,6.468753180107683],[7.526939049856679,6.468738740767925],[7.526972139989738,6.468689658269156],[7.527074014757119,6.468771983908255]]],"type":"Polygon"}},{"type":"Feature","properties":{"height":11,"base_height":0,"name":"cohon2"},"geometry":{"coordinates":[[[7.52692963819581,6.46875025446414],[7.526878189831052,6.468823919526002],[7.526816798883743,6.468785467240721],[7.526864509421159,6.468711302742733],[7.52692963819581,6.46875025446414]]],"type":"Polygon"}},{"type":"Feature","properties":{"height":14,"base_height":0,"name":"dvc building"},"geometry":{"coordinates":[[[7.526785616948644,6.468754964046255],[7.526733895866116,6.468704700627214],[7.526697477898011,6.468678041108987],[7.52676002939927,6.4685886734105935],[7.526848353171289,6.468653916773917],[7.526785616948644,6.468754964046255]]],"type":"Polygon"}},{"type":"Feature","properties":{"height":12,"base_height":0,"name":"edu bukilding"},"geometry":{"coordinates":[[[7.527463571319032,6.469025931691448],[7.527337143892794,6.46918494372359],[7.527283392589538,6.469153003510968],[7.527379604929109,6.469023459953306],[7.527357841126204,6.469011244851949],[7.5272931855413034,6.469091023562132],[7.527250638113838,6.469054159711108],[7.5273447376548575,6.4689350370282455],[7.527463571319032,6.469025931691448]]],"type":"Polygon"}},{"type":"Feature","properties":{"height":8,"base_height":0,"name":"gen house"},"geometry":{"coordinates":[[[7.526228221955591,6.468802872066092],[7.526197896727041,6.468782092729384],[7.526241454401827,6.4687414844115665],[7.526266213670937,6.468769622299973],[7.526228221955591,6.468802872066092]]],"type":"Polygon"}},{"type":"Feature","properties":{"height":16,"base_height":0,"name":"goodluck convo area"},"geometry":{"coordinates":[[[7.527767043924001,6.468725333936064],[7.527641245440577,6.469019555493006],[7.527516184768672,6.468970808078865],[7.527490967609111,6.469018164605714],[7.5273529110824455,6.468946322420543],[7.527370743069405,6.46889397442548],[7.527054155222288,6.468751556480072],[7.52720781991772,6.468479746641435],[7.527767043924001,6.468725333936064]]],"type":"Polygon"}},{"type":"Feature","properties":{"height":16,"base_height":0,"name":"goodluck hall"},"geometry":{"coordinates":[[[7.527763206506819,6.468734655320787],[7.527648888433703,6.469021775650532],[7.527496567919002,6.468958577171989],[7.5275447872877095,6.468844309203718],[7.52753345468988,6.46881622214125],[7.52755544801256,6.468787747136258],[7.527579695980384,6.468773632282817],[7.527614896852555,6.4686785844374555],[7.527763206506819,6.468734655320787]]],"type":"Polygon"}},{"type":"Feature","properties":{"height":11,"base_height":0,"name":"lab test building"},"geometry":{"coordinates":[[[7.527370605024089,6.468893407853912],[7.527334542329356,6.468949680439948],[7.52723398535565,6.468906154847858],[7.52727233557809,6.468846540674392],[7.527370605024089,6.468893407853912]]],"type":"Polygon"}},{"type":"Feature","properties":{"height":4,"base_height":0,"name":"male toilet"},"geometry":{"coordinates":[[[7.527636908709269,6.469047428598159],[7.5276237203928815,6.469084224027924],[7.5275684254851,6.469056895464732],[7.527578823438603,6.469024176151962],[7.527636908709269,6.469047428598159]]],"type":"Polygon"}},{"type":"Feature","properties":{"height":10,"base_height":0,"name":"old nifes building"},"geometry":{"coordinates":[[[7.527601187576465,6.4690850009222345],[7.527099312363646,6.469751582682008],[7.5270337370632205,6.469712363983504],[7.527536970988876,6.469041285724472],[7.527601187576465,6.4690850009222345]]],"type":"Polygon"}},{"type":"Feature","properties":{"height":9,"base_height":0,"name":"radio building"},"geometry":{"coordinates":[[[7.5265322465167515,6.468925957666556],[7.526353341976744,6.46877700752745],[7.526421287546867,6.468691755572962],[7.526599594926466,6.46884184725171],[7.526570607020858,6.468880523121911],[7.5265322465167515,6.468925957666556]]],"type":"Polygon"}},{"type":"Feature","properties":{"height":11,"base_height":0,"name":"sam building"},"geometry":{"coordinates":[[[7.5265779789189935,6.468898920844978],[7.526726590760148,6.468720552601482],[7.526845828632048,6.468813537766351],[7.52682602437141,6.46883912464606],[7.526894615979504,6.468894421820121],[7.52686852317205,6.4689242427588365],[7.526879047181599,6.468935627127396],[7.526851636862162,6.468966668754362],[7.526823161953536,6.469018947316351],[7.526802015144822,6.469004360851928],[7.5267712990172795,6.46903611751272],[7.526717687454271,6.469001620267756],[7.526751147917249,6.468958187487491],[7.5267400910781035,6.4689448720624725],[7.52670032667271,6.468993512197102],[7.5265779789189935,6.468898920844978]]],"type":"Polygon"}},{"type":"Feature","properties":{"height":4,"base_height":0,"name":"securitypost"},"geometry":{"type":"Polygon","coordinates":[[[7.526360335966217,6.4686601284216225],[7.526357922739507,6.46866001062215],[7.526355532753492,6.46865965835821],[7.5263531890250475,6.468659075022295],[7.526350914125564,6.46865826623225],[7.526348729963568,6.468657239777166],[7.526346657573738,6.4686560055423685],[7.526344716914318,6.468654575414215],[7.526342926674925,6.46865296316562],[7.52634130409654,6.468651184323427],[7.526339864805482,6.468649256018852],[7.526338622662908,6.468647196822531],[7.526337589631328,6.468645026565648],[7.526336775659399,6.468642766148966],[7.526336188586115,6.468640437341533],[7.526335834065308,6.468638062571039],[7.526335715511204,6.468635664707823],[7.52633583406554,6.468633266844618],[7.526336188586571,6.468630892074159],[7.526336775660062,6.4686285632667815],[7.5263375896321705,6.468626302850172],[7.526338622663898,6.468624132593379],[7.526339864806584,6.468622073397159],[7.526341304097709,6.4686201450926974],[7.526342926676118,6.4686183662506185],[7.526344716915488,6.46861675400214],[7.526346657574839,6.468615323874096],[7.526348729964561,6.468614089639403],[7.526350914126406,6.468613063184407],[7.526353189025711,6.468612254394436],[7.526355532753948,6.468611671058576],[7.526357922739739,6.46861131879467],[7.526360335966217,6.468611200995208],[7.526362749192693,6.46861131879467],[7.526365139178485,6.468611671058576],[7.526367482906722,6.468612254394436],[7.526369757806026,6.468613063184407],[7.526371941967873,6.468614089639403],[7.526374014357595,6.468615323874096],[7.526375955016946,6.46861675400214],[7.526377745256316,6.4686183662506185],[7.526379367834725,6.4686201450926974],[7.52638080712585,6.468622073397159],[7.526382049268534,6.468624132593379],[7.526383082300262,6.468626302850172],[7.526383896272371,6.4686285632667815],[7.526384483345861,6.468630892074159],[7.526384837866894,6.468633266844618],[7.52638495642123,6.468635664707823],[7.526384837867126,6.468638062571039],[7.526384483346319,6.468640437341533],[7.5263838962730345,6.468642766148966],[7.5263830823011055,6.468645026565648],[7.526382049269525,6.468647196822531],[7.5263808071269525,6.468649256018852],[7.526379367835894,6.468651184323427],[7.526377745257509,6.46865296316562],[7.526375955018114,6.468654575414215],[7.526374014358695,6.4686560055423685],[7.526371941968866,6.468657239777166],[7.52636975780687,6.46865826623225],[7.526367482907385,6.468659075022295],[7.526365139178941,6.46865965835821],[7.526362749192927,6.46866001062215],[7.526360335966217,6.4686601284216225]]]}},{"type":"Feature","properties":{"height":4,"base_height":0,"name":"storage house"},"geometry":{"coordinates":[[[7.526192016484288,6.4688523943764835],[7.526158339623066,6.468828178403854],[7.52618671131367,6.468800193304077],[7.52621492923987,6.4688250008954356],[7.526192016484288,6.4688523943764835]]],"type":"Polygon"}},{"type":"Feature","properties":{"height":16,"base_height":0,"name":"ubc hall"},"geometry":{"coordinates":[[[7.526617292533302,6.469205730960155],[7.526352051132221,6.469018141910809],[7.526408375461472,6.4689414441911595],[7.526675366866698,6.469134536632794],[7.526653618332503,6.469173898300205],[7.526617292533302,6.469205730960155]]],"type":"Polygon"}},{"type":"Feature","properties":{"locations":"","height":14,"base_height":0,"name":"vc building"},"geometry":{"coordinates":[[[7.526595195212991,6.468654377449724],[7.526653956208051,6.468588690367795],[7.52671889347593,6.4685156880459544],[7.52677618272476,6.468561666548965],[7.526722383885108,6.468638956054562],[7.5267001504995275,6.468668332335387],[7.526688786202843,6.46865896701032],[7.526660298094555,6.468709630935692],[7.526595195212991,6.468654377449724]]],"type":"Polygon"}},{"type":"Feature","properties":{"height":8,"base_height":0,"name":"computer lib"},"geometry":{"coordinates":[[[7.525667242008296,6.468745354335525],[7.525517050254194,6.468612622046848],[7.525506856943906,6.468621514143905],[7.52549023346927,6.468609429416389],[7.525555331019945,6.468540825734962],[7.525713690388642,6.468692175199678],[7.525667242008296,6.468745354335525]]],"type":"Polygon"}},{"type":"Feature","properties":{"height":10,"base_height":0,"name":"computer_block2"},"geometry":{"coordinates":[[[7.525906100597297,6.468737860092062],[7.5256967706843625,6.468556702173856],[7.5257560185510215,6.468491091424497],[7.525769311246677,6.468495320682635],[7.525805653589686,6.468458342533893],[7.526006034432186,6.46862937207095],[7.525906100597297,6.468737860092062]]],"type":"Polygon"}},{"type":"Feature","properties":{"height":10,"base_height":0,"name":"computer_block1"},"geometry":{"coordinates":[[[7.52581041912299,6.4687588711047965],[7.525855042781103,6.468700742723101],[7.525910618767455,6.4687465787532545],[7.526008496486526,6.4686384073718415],[7.526067634645358,6.468686832991551],[7.525932807673371,6.468855089043245],[7.52581041912299,6.4687588711047965]]],"type":"Polygon"}},{"type":"Feature","properties":{"height":4,"base_height":0,"name":"computer_toilet_m"},"geometry":{"coordinates":[[[7.5255661958568965,6.468543797531737],[7.525663245143505,6.468496273573152],[7.525672894919012,6.468519032069267],[7.525641516899526,6.468532955911172],[7.525673191826513,6.468579597687807],[7.525630026462494,6.468605943735156],[7.5255661958568965,6.468543797531737]]],"type":"Polygon"}},{"type":"Feature","properties":{"height":4,"base_height":0,"name":"computer_toilet_f"},"geometry":{"coordinates":[[[7.5256867815502915,6.468539622815086],[7.525669202027245,6.468495356227109],[7.525788820429227,6.46844587195794],[7.525784229238923,6.468489764577882],[7.5256867815502915,6.468539622815086]]],"type":"Polygon"}},{"type":"Feature","properties":{"height":4,"base_height":0,"name":"computer_foodspot"},"geometry":{"coordinates":[[[7.5257143932481085,6.468763901035516],[7.5259043106003105,6.468925579845873],[7.525881197522494,6.468953383720105],[7.5256890353217045,6.468782201281357],[7.5257143932481085,6.468763901035516]]],"type":"Polygon"}},{"type":"Feature","properties":{"height":12,"base_height":0,"name":"student_affairs_block1"},"geometry":{"coordinates":[[[7.5260518269163015,6.468649733492953],[7.5259554262950985,6.468562351697088],[7.526098922613471,6.468411538509727],[7.526190167736189,6.468500625920555],[7.5260518269163015,6.468649733492953]]],"type":"Polygon"}},{"type":"Feature","properties":{"height":10,"base_height":0,"name":"student_affairs_block2"},"geometry":{"coordinates":[[[7.525928651016102,6.468475608483388],[7.52590475401189,6.468413179090291],[7.526056610752789,6.468333804803095],[7.526088547478167,6.468401768826766],[7.525928651016102,6.468475608483388]]],"type":"Polygon"}},{"type":"Feature","properties":{"height":10,"base_height":0,"name":"oursavior_blockA"},"geometry":{"coordinates":[[[7.526418443172332,6.470936451861448],[7.526319952460199,6.470877434804947],[7.526374565453324,6.47078842830652],[7.526477740981505,6.470837696795826],[7.526444834707803,6.470882886197273],[7.526418443172332,6.470936451861448]]],"type":"Polygon"}},{"type":"Feature","properties":{"height":10,"base_height":0,"name":"oursavior_blockB"},"geometry":{"coordinates":[[[7.526332477829783,6.470850870810821],[7.526286206344054,6.470821007110558],[7.5263185043482395,6.4707704362337495],[7.526366502249772,6.470797564850045],[7.526332477829783,6.470850870810821]]],"type":"Polygon"}},{"type":"Feature","properties":{"height":10,"base_height":0,"name":"oursavior_blockC"},"geometry":{"coordinates":[[[7.5263166219004916,6.470763706305846],[7.5262667332230535,6.4708450132712585],[7.526166009514668,6.470792829240025],[7.526221516465597,6.470706209694015],[7.5263166219004916,6.470763706305846]]],"type":"Polygon"}},{"type":"Feature","properties":{"height":10,"base_height":0,"name":"oursaviour_blockD"},"geometry":{"coordinates":[[[7.526156879495062,6.470791376162467],[7.526050424646314,6.470775059370354],[7.526051676279394,6.470748424850875],[7.526031647973582,6.4707413374191525],[7.52603972106229,6.470681500187551],[7.52606093061479,6.470666483631902],[7.526174993764101,6.470679946005362],[7.526156879495062,6.470791376162467]]],"type":"Polygon"}},{"type":"Feature","properties":{"height":10,"base_height":0,"name":"nwabueze_block1"},"geometry":{"coordinates":[[[7.525595774998266,6.470128345693269],[7.525584439514148,6.47011590204184],[7.525569350405306,6.4701466438037585],[7.525583474803341,6.4701605286245325],[7.525551742948949,6.470210936317514],[7.525438464323798,6.470147387466582],[7.525483852511712,6.4700687304489435],[7.525468804232105,6.470058004969886],[7.525490454830049,6.470020780136707],[7.525511712127582,6.470029266807515],[7.525545645627574,6.469967059606503],[7.5256517102695,6.470035771177606],[7.525595774998266,6.470128345693269]]],"type":"Polygon"}},{"type":"Feature","properties":{"height":10,"base_height":0,"name":"nwabueze_block2"},"geometry":{"coordinates":[[[7.525790724952742,6.470245913341174],[7.52576845481056,6.4702350312905],[7.5257209488450485,6.470308249488966],[7.525609499351049,6.470246474575333],[7.525638810977227,6.470200949691275],[7.5256506109425345,6.470205372551902],[7.525673324347906,6.47016480256336],[7.52565752490861,6.470157142591233],[7.525710113844099,6.470067053964172],[7.525827199451328,6.470130113424432],[7.525802438100953,6.470180560901625],[7.525821406731012,6.470195297403393],[7.525790724952742,6.470245913341174]]],"type":"Polygon"}},{"type":"Feature","properties":{"height":10,"base_height":0,"name":"nwabueze_block3"},"geometry":{"coordinates":[[[7.525991248907133,6.470342673961184],[7.525976761173268,6.470334745560834],[7.525957900085558,6.470366184930981],[7.525972247846084,6.470374307786798],[7.5259443086777935,6.470426515471871],[7.525826873027427,6.47036663969881],[7.5258735173971445,6.47028735859854],[7.525853452927947,6.470276636789308],[7.525876247382598,6.470234666598074],[7.525901313541368,6.47024200234263],[7.525926829828109,6.470190016804153],[7.526039579844877,6.4702536563709],[7.525991248907133,6.470342673961184]]],"type":"Polygon"}},{"type":"Feature","properties":{"height":10,"base_height":0,"name":"nwabueze_block4"},"geometry":{"coordinates":[[[7.5259289115763295,6.470474405782298],[7.52585106969758,6.470433443022088],[7.525863166449653,6.470408797748192],[7.525940995054867,6.470449933864884],[7.5259289115763295,6.470474405782298]]],"type":"Polygon"}},{"type":"Feature","properties":{"height":4,"base_height":0,"name":"nwabueze _store"},"geometry":{"coordinates":[[[7.52554231969944,6.46996977158264],[7.525509391262432,6.469950276381496],[7.525525159943186,6.469936396720911],[7.525554134101128,6.469952653114788],[7.52554231969944,6.46996977158264]]],"type":"Polygon"}},{"type":"Feature","properties":{"height":4,"base_height":0,"name":"nwabueze_gatepost"},"geometry":{"coordinates":[[[7.52538386003485,6.470178585212423],[7.525347646805756,6.470158350609154],[7.525361000322619,6.470138975410606],[7.525395075940708,6.470158468538926],[7.52538386003485,6.470178585212423]]],"type":"Polygon"}},{"type":"Feature","properties":{"height":4,"base_height":0,"name":"nwabuez_toilet1"},"geometry":{"coordinates":[[[7.525645220530407,6.470026118963688],[7.525564393121186,6.469976919519411],[7.525568679428687,6.469960128331309],[7.525652282796102,6.470009179900913],[7.525645220530407,6.470026118963688]]],"type":"Polygon"}},{"type":"Feature","properties":{"height":4,"base_height":0,"name":"nwabueze_kitchen1"},"geometry":{"coordinates":[[[7.525638002235667,6.470142678056604],[7.525608977580134,6.470128933501812],[7.525641899440046,6.470083341527811],[7.525668648750866,6.47009377647889],[7.525638002235667,6.470142678056604]]],"type":"Polygon"}},{"type":"Feature","properties":{"height":4,"base_height":0,"name":"nwabuez_toilet2"},"geometry":{"coordinates":[[[7.525840803728386,6.470136664859766],[7.525779294411819,6.470098540319597],[7.52578849385344,6.470084877041913],[7.5258487788580055,6.470124819967737],[7.525840803728386,6.470136664859766]]],"type":"Polygon"}},{"type":"Feature","properties":{"height":4,"base_height":0,"name":"nwabueze_kitchen2"},"geometry":{"coordinates":[[[7.525863443354069,6.470251206083788],[7.525839265359338,6.470234578541394],[7.525865861173884,6.470185660129715],[7.525890991466838,6.470199040549019],[7.525863443354069,6.470251206083788]]],"type":"Polygon"}},{"type":"Feature","properties":{"height":4,"base_height":0,"name":"nwabueze_toilet3"},"geometry":{"coordinates":[[[7.5259848781748815,6.470220815825073],[7.525935320590861,6.470193329074917],[7.525944129578818,6.470180245713536],[7.525988567643111,6.470208453789937],[7.5259848781748815,6.470220815825073]]],"type":"Polygon"}},{"type":"Feature","properties":{"height":10,"base_height":0,"name":"oursavior_mod_block"},"geometry":{"coordinates":[[[7.526388118666148,6.471061022452417],[7.526360094113244,6.471044273819757],[7.526383922891057,6.47098634121059],[7.5264217866770196,6.471008328412125],[7.526388118666148,6.471061022452417]]],"type":"Polygon"}},{"type":"Feature","properties":{"height":4,"base_height":0,"name":"oursavior_gatepost"},"geometry":{"coordinates":[[[7.526449079859674,6.470961669896084],[7.526420116154014,6.470942197071665],[7.526439628934526,6.4709040395621145],[7.526466250750275,6.470927028727914],[7.526449079859674,6.470961669896084]]],"type":"Polygon"}},{"type":"Feature","properties":{"height":10,"base_height":0,"name":"oursaviour_blockE"},"geometry":{"coordinates":[[[7.525987518001358,6.470738915046624],[7.525993842135449,6.4706779758681705],[7.52603535061769,6.470677358339984],[7.526027160111596,6.470742584044288],[7.525987518001358,6.470738915046624]]],"type":"Polygon"}},{"type":"Feature","properties":{"height":10,"base_height":0,"name":"oursaviour_blockF"},"geometry":{"coordinates":[[[7.5259808584434325,6.470760006871217],[7.525917794178781,6.470757093105078],[7.52584067348252,6.470747452769416],[7.525805256299805,6.470738147596705],[7.525798550796452,6.470727105858103],[7.5258427184013215,6.470658756713249],[7.525860182749341,6.470663226376999],[7.52586666463327,6.470648982836892],[7.525994174546838,6.47066541921383],[7.5259808584434325,6.470760006871217]]],"type":"Polygon"}},{"type":"Feature","properties":{"height":4,"base_height":0,"name":"oursavior_toilet1"},"geometry":{"coordinates":[[[7.526130809935154,6.4706177038080455],[7.5260994898855245,6.47065935320056],[7.525926472902569,6.470563296863432],[7.525957609066552,6.4705201067321525],[7.526130809935154,6.4706177038080455]]],"type":"Polygon"}},{"type":"Feature","properties":{"height":4,"base_height":0,"name":"oursavior_toilet2"},"geometry":{"coordinates":[[[7.525880777760449,6.47064389812742],[7.525855074041715,6.470634824768339],[7.525908156667214,6.470545578331297],[7.525928394373864,6.470560920894073],[7.525880777760449,6.47064389812742]]],"type":"Polygon"}},{"type":"Feature","properties":{"height":4,"base_height":0,"name":"oursaviour_kitchen"},"geometry":{"coordinates":[[[7.526262304855948,6.470685857503611],[7.5262446161266325,6.470709863008992],[7.526172821869267,6.470673230277242],[7.52618859892894,6.470643611726516],[7.526262304855948,6.470685857503611]]],"type":"Polygon"}},{"type":"Feature","properties":{"height":4,"base_height":0,"name":"oursaviour_store"},"geometry":{"coordinates":[[[7.526495558694677,6.470849864063439],[7.5264726329812675,6.4708382633529595],[7.526486532399645,6.470813655983946],[7.526511845292845,6.47083188129956],[7.526495558694677,6.470849864063439]]],"type":"Polygon"}},{"type":"Feature","properties":{"height":4,"base_height":0,"name":"oursaviour_field"},"geometry":{"coordinates":[[[7.52601222126134,6.4711416126288555],[7.52582329886161,6.471042887011649],[7.525899388768806,6.470870307245349],[7.526090650452005,6.470973869346295],[7.52601222126134,6.4711416126288555]]],"type":"Polygon"}},{"type":"Feature","properties":{"height":10,"base_height":0,"name":"cvc_blockA"},"geometry":{"coordinates":[[[7.526543284526184,6.470638316838276],[7.52649873124534,6.470730622157603],[7.5263191709820205,6.470636328943073],[7.526344451809848,6.470578719889488],[7.52637227200438,6.470540688103185],[7.526543284526184,6.470638316838276]]],"type":"Polygon"}},{"type":"Feature","properties":{"height":10,"base_height":0,"name":"cvc_blockB"},"geometry":{"coordinates":[[[7.526036143653101,6.470364735775632],[7.526149515518313,6.4704332143058565],[7.526206704682039,6.470468350127405],[7.526188829317931,6.470504099056143],[7.5261618377979005,6.470550314677112],[7.526106460308597,6.4705193202609905],[7.526102913523971,6.47053438781559],[7.526036668174925,6.470496876749181],[7.526042802436649,6.470484608843421],[7.525982189714625,6.470447300749498],[7.5260056844334144,6.47040454466493],[7.526036143653101,6.470364735775632]]],"type":"Polygon"}},{"type":"Feature","properties":{"height":4,"base_height":0,"name":"cvc_kitchen"},"geometry":{"coordinates":[[[7.526260890599474,6.470406401653435],[7.526308056002023,6.470430654701417],[7.526317215815908,6.470412335993387],[7.526353175187666,6.470432793653558],[7.5263464619814044,6.4704501961874],[7.526386531354348,6.470476327839322],[7.526357209326534,6.470523266036565],[7.526236930289485,6.470450181490364],[7.526260890599474,6.470406401653435]]],"type":"Polygon"}},{"type":"Feature","properties":{"height":4,"base_height":0,"name":"cvc_toilet1"},"geometry":{"coordinates":[[[7.526124800045807,6.4702853888642835],[7.526199999333954,6.470327379166974],[7.5261913742242825,6.470344628522113],[7.526177301677137,6.470372772206531],[7.52610025401404,6.47032694589744],[7.526112275869508,6.47029787215304],[7.526124800045807,6.4702853888642835]]],"type":"Polygon"}},{"type":"Feature","properties":{"height":4,"base_height":0,"name":"cvc_toilet2"},"geometry":{"coordinates":[[[7.5263047875507425,6.470388038160678],[7.526294360498213,6.470413679896325],[7.526189793140276,6.470353663314839],[7.5262042180332,6.47033000229105],[7.5263047875507425,6.470388038160678]]],"type":"Polygon"}},{"type":"Feature","properties":{"height":4,"base_height":0,"name":"cvc_gatepost"},"geometry":{"coordinates":[[[7.526531804260145,6.470722330681852],[7.526557209095614,6.4707292018583615],[7.526554913685516,6.470757524818637],[7.526540743377609,6.47078113148163],[7.5265096777939675,6.470764155740099],[7.526519507758081,6.470732341549066],[7.526531804260145,6.470722330681852]]],"type":"Polygon"}}]}